CSS (TIANHE)            
1 48274U 21035A   24254.52628084  .00035940  00000+0  37603-3 0  9990
2 48274  41.4688 282.9052 0001356  90.3951 269.7045 15.63709133192449
